[{"OBJECT_NAME":"STARLINK-5854","OBJECT_ID":"2023-037K","EPOCH":"2026-03-09T22:23:42.917568","MEAN_MOTION":14.98329785,"ECCENTRICITY":0.00026496,"INCLINATION":69.9996,"RA_OF_ASC_NODE":303.8424,"ARG_OF_PERICENTER":268.2364,"MEAN_ANOMALY":91.8491,"EPHEMERIS_TYPE":0,"CLASSIFICATION_TYPE":"U","NORAD_CAT_ID":55923,"ELEMENT_SET_NO":999,"REV_AT_EPOCH":16352,"BSTAR":-4.2582624e-5,"MEAN_MOTION_DOT":-6.01e-6,"MEAN_MOTION_DDOT":0},{"OBJECT_NAME":"RAPIDEYE 5","OBJECT_ID":"2008-040B","EPOCH":"2026-03-09T15:17:22.403904","MEAN_MOTION":15.02179038,"ECCENTRICITY":0.0014834,"INCLINATION":97.3944,"RA_OF_ASC_NODE":91.3825,"ARG_OF_PERICENTER":86.9831,"MEAN_ANOMALY":273.3091,"EPHEMERIS_TYPE":0,"CLASSIFICATION_TYPE":"U","NORAD_CAT_ID":33313,"ELEMENT_SET_NO":999,"REV_AT_EPOCH":95055,"BSTAR":0.00014028,"MEAN_MOTION_DOT":1.794e-5,"MEAN_MOTION_DDOT":0}]
